start=new Date('2022-12-30T00:00:00.000Z').valueOf();
sats=[{"TLE_LINE1":"1 45774U 20038AW  22363.50969620 -.00002875  00000-0 -17425-3 0  9999","MEAN_ELEMENT_THEORY":"SGP4","RA_OF_ASC_NODE":"31.8140","MEAN_MOTION_DOT":"-0.00002875","INCLINATION":"53.0542","OBJECT_TYPE":"PAYLOAD","SEMIMAJOR_AXIS":"6925.375","MEAN_ANOMALY":"279.9960","MEAN_MOTION":"15.06391322","CENTER_NAME":"EARTH","EPHEMERIS_TYPE":"0","REF_FRAME":"TEME","PERIOD":"95.593","PERIAPSIS":"546.325","OBJECT_ID":"2020-038AW","BSTAR":"-0.00017425000000","APOAPSIS":"548.156","ECCENTRICITY":"0.00013220","EPOCH":"2022-12-29T12:13:57.751680","OBJECT_NAME":"STARLINK-1485","DECAY_DATE":null,"RCS_SIZE":"LARGE","ELEMENT_SET_NO":"999","COUNTRY_CODE":"US","FILE":"3725894","ARG_OF_PERICENTER":"80.1178","CLASSIFICATION_TYPE":"U","NORAD_CAT_ID":"45774","TLE_LINE2":"2 45774  53.0542  31.8140 0001322  80.1178 279.9960 15.06391322142100","SITE":"AFETR","LAUNCH_DATE":"2020-06-13","MEAN_MOTION_DDOT":"0.0000000000000","GP_ID":"221744154","REV_AT_EPOCH":"14210","TIME_SYSTEM":"UTC"},{"NORAD_CAT_ID":"45775","MEAN_MOTION_DDOT":"0.0000000000000","LAUNCH_DATE":"2020-06-13","TLE_LINE2":"2 45775  53.0541  31.7503 0000512 331.0482  29.0480 15.08725930140981","SITE":"AFETR","REV_AT_EPOCH":"14098","GP_ID":"221734401","TIME_SYSTEM":"UTC","COUNTRY_CODE":"US","FILE":"3725790","ARG_OF_PERICENTER":"331.0482","CLASSIFICATION_TYPE":"U","ECCENTRICITY":"0.00005120","EPOCH":"2022-12-29T09:20:52.059552","DECAY_DATE":null,"OBJECT_NAME":"STARLINK-1488","ELEMENT_SET_NO":"999","RCS_SIZE":"LARGE","BSTAR":"0.00092346000000","OBJECT_ID":"2020-038AX","APOAPSIS":"540.448","PERIOD":"95.445","REF_FRAME":"TEME","PERIAPSIS":"539.740","CENTER_NAME":"EARTH","EPHEMERIS_TYPE":"0","OBJECT_TYPE":"PAYLOAD","SEMIMAJOR_AXIS":"6918.229","MEAN_ANOMALY":"29.0480","MEAN_MOTION":"15.08725930","TLE_LINE1":"1 45775U 20038AX  22363.38949143  .00014395  00000-0  92346-3 0  9997","MEAN_ELEMENT_THEORY":"SGP4","RA_OF_ASC_NODE":"31.7503","INCLINATION":"53.0541","MEAN_MOTION_DOT":"0.00014395"},{"EPHEMERIS_TYPE":"0","CENTER_NAME":"EARTH","PERIOD":"95.593","REF_FRAME":"TEME","PERIAPSIS":"545.573","INCLINATION":"53.0562","MEAN_MOTION_DOT":"-0.00004129","TLE_LINE1":"1 45776U 20038AY  22363.52075419 -.00004129  00000-0 -25851-3 0  9993","MEAN_ELEMENT_THEORY":"SGP4","RA_OF_ASC_NODE":"31.7628","MEAN_ANOMALY":"325.8685","MEAN_MOTION":"15.06383128","OBJECT_TYPE":"PAYLOAD","SEMIMAJOR_AXIS":"6925.400","ARG_OF_PERICENTER":"34.2461","CLASSIFICATION_TYPE":"U","COUNTRY_CODE":"US","FILE":"3725790","REV_AT_EPOCH":"14099","GP_ID":"221734650","TIME_SYSTEM":"UTC","NORAD_CAT_ID":"45776","MEAN_MOTION_DDOT":"0.0000000000000","LAUNCH_DATE":"2020-06-13","SITE":"AFETR","TLE_LINE2":"2 45776  53.0562  31.7628 0002443  34.2461 325.8685 15.06383128140999","BSTAR":"-0.00025851000000","OBJECT_ID":"2020-038AY","APOAPSIS":"548.957","DECAY_DATE":null,"OBJECT_NAME":"STARLINK-1489","ELEMENT_SET_NO":"999","RCS_SIZE":"LARGE","ECCENTRICITY":"0.00024430","EPOCH":"2022-12-29T12:29:53.162016"},{"SEMIMAJOR_AXIS":"6925.373","OBJECT_TYPE":"PAYLOAD","MEAN_MOTION":"15.06391965","MEAN_ANOMALY":"318.6250","MEAN_ELEMENT_THEORY":"SGP4","RA_OF_ASC_NODE":"32.3695","TLE_LINE1":"1 45777U 20038AZ  22363.38437729 -.00002724  00000-0 -16402-3 0  9995","MEAN_MOTION_DOT":"-0.00002724","INCLINATION":"53.0545","PERIAPSIS":"545.481","REF_FRAME":"TEME","PERIOD":"95.593","CENTER_NAME":"EARTH","EPHEMERIS_TYPE":"0","EPOCH":"2022-12-29T09:13:30.197856","ECCENTRICITY":"0.00025370","ELEMENT_SET_NO":"999","RCS_SIZE":"LARGE","OBJECT_NAME":"STARLINK-1490","DECAY_DATE":null,"APOAPSIS":"548.995","OBJECT_ID":"2020-038AZ","BSTAR":"-0.00016402000000","SITE":"AFETR","TLE_LINE2":"2 45777  53.0545  32.3695 0002537  41.4931 318.6250 15.06391965140972","LAUNCH_DATE":"2020-06-13","MEAN_MOTION_DDOT":"0.0000000000000","NORAD_CAT_ID":"45777","TIME_SYSTEM":"UTC","GP_ID":"221735900","REV_AT_EPOCH":"14097","FILE":"3725790","COUNTRY_CODE":"US","CLASSIFICATION_TYPE":"U","ARG_OF_PERICENTER":"41.4931"},{"FILE":"3725790","COUNTRY_CODE":"US","CLASSIFICATION_TYPE":"U","ARG_OF_PERICENTER":"39.4003","TLE_LINE2":"2 45778  53.0559  31.8513 0002135  39.4003 320.7141 15.06382584140972","SITE":"AFETR","LAUNCH_DATE":"2020-06-13","MEAN_MOTION_DDOT":"0.0000000000000","NORAD_CAT_ID":"45778","TIME_SYSTEM":"UTC","GP_ID":"221735651","REV_AT_EPOCH":"14097","APOAPSIS":"548.746","OBJECT_ID":"2020-038BA","BSTAR":"-0.00010180000000","EPOCH":"2022-12-29T11:58:02.798400","ECCENTRICITY":"0.00021350","RCS_SIZE":"LARGE","ELEMENT_SET_NO":"999","OBJECT_NAME":"STARLINK-1491","DECAY_DATE":null,"CENTER_NAME":"EARTH","EPHEMERIS_TYPE":"0","PERIAPSIS":"545.788","REF_FRAME":"TEME","PERIOD":"95.593","RA_OF_ASC_NODE":"31.8513","MEAN_ELEMENT_THEORY":"SGP4","TLE_LINE1":"1 45778U 20038BA  22363.49864350 -.00001797  00000-0 -10180-3 0  9998","MEAN_MOTION_DOT":"-0.00001797","INCLINATION":"53.0559","SEMIMAJOR_AXIS":"6925.402","OBJECT_TYPE":"PAYLOAD","MEAN_MOTION":"15.06382584","MEAN_ANOMALY":"320.7141"},{"DECAY_DATE":null,"OBJECT_NAME":"STARLINK-1492","RCS_SIZE":"LARGE","ELEMENT_SET_NO":"999","ECCENTRICITY":"0.00012690","EPOCH":"2022-12-29T08:24:29.530656","BSTAR":"0.00123460000000","OBJECT_ID":"2020-038BB","APOAPSIS":"532.075","REV_AT_EPOCH":"14098","GP_ID":"221734899","TIME_SYSTEM":"UTC","NORAD_CAT_ID":"45779","MEAN_MOTION_DDOT":"0.0000000000000","LAUNCH_DATE":"2020-06-13","SITE":"AFETR","TLE_LINE2":"2 45779  53.0557  30.3275 0001269  14.8524 345.2504 15.11640706140987","ARG_OF_PERICENTER":"14.8524","CLASSIFICATION_TYPE":"U","COUNTRY_CODE":"US","FILE":"3725790","MEAN_ANOMALY":"345.2504","MEAN_MOTION":"15.11640706","OBJECT_TYPE":"PAYLOAD","SEMIMAJOR_AXIS":"6909.333","INCLINATION":"53.0557","MEAN_MOTION_DOT":"0.00020995","TLE_LINE1":"1 45779U 20038BB  22363.35034179  .00020995  00000-0  12346-2 0  9996","RA_OF_ASC_NODE":"30.3275","MEAN_ELEMENT_THEORY":"SGP4","PERIOD":"95.261","REF_FRAME":"TEME","PERIAPSIS":"530.321","EPHEMERIS_TYPE":"0","CENTER_NAME":"EARTH"},{"FILE":"3725790","COUNTRY_CODE":"US","CLASSIFICATION_TYPE":"U","ARG_OF_PERICENTER":"51.3708","MEAN_MOTION_DDOT":"0.0000000000000","LAUNCH_DATE":"2020-06-13","SITE":"AFETR","TLE_LINE2":"2 45780  53.0549  31.8111 0001830  51.3708 308.7445 15.06393480140974","NORAD_CAT_ID":"45780","TIME_SYSTEM":"UTC","GP_ID":"221735149","REV_AT_EPOCH":"14097","APOAPSIS":"548.501","BSTAR":"-0.00016009000000","OBJECT_ID":"2020-038BC","EPOCH":"2022-12-29T12:08:39.586272","ECCENTRICITY":"0.00018300","RCS_SIZE":"LARGE","ELEMENT_SET_NO":"999","DECAY_DATE":null,"OBJECT_NAME":"STARLINK-1496","CENTER_NAME":"EARTH","EPHEMERIS_TYPE":"0","PERIAPSIS":"545.966","PERIOD":"95.593","REF_FRAME":"TEME","MEAN_ELEMENT_THEORY":"SGP4","RA_OF_ASC_NODE":"31.8111","TLE_LINE1":"1 45780U 20038BC  22363.50601373 -.00002665  00000-0 -16009-3 0  9998","INCLINATION":"53.0549","MEAN_MOTION_DOT":"-0.00002665","SEMIMAJOR_AXIS":"6925.369","OBJECT_TYPE":"PAYLOAD","MEAN_MOTION":"15.06393480","MEAN_ANOMALY":"308.7445"},{"APOAPSIS":"548.556","OBJECT_ID":"2020-038BD","BSTAR":"-0.00011784000000","RCS_SIZE":"LARGE","ELEMENT_SET_NO":"999","OBJECT_NAME":"STARLINK-1497","DECAY_DATE":null,"EPOCH":"2022-12-29T11:10:16.271040","ECCENTRICITY":"0.00018960","CLASSIFICATION_TYPE":"U","ARG_OF_PERICENTER":"49.8895","FILE":"3725894","COUNTRY_CODE":"US","TIME_SYSTEM":"UTC","REV_AT_EPOCH":"14190","GP_ID":"221744078","SITE":"AFETR","TLE_LINE2":"2 45781  53.0576  32.0139 0001896  49.8895 310.2260 15.06390461141902","LAUNCH_DATE":"2020-06-13","MEAN_MOTION_DDOT":"0.0000000000000","NORAD_CAT_ID":"45781","MEAN_MOTION_DOT":"-0.00002036","INCLINATION":"53.0576","MEAN_ELEMENT_THEORY":"SGP4","RA_OF_ASC_NODE":"32.0139","TLE_LINE1":"1 45781U 20038BD  22363.46546610 -.00002036  00000-0 -11784-3 0  9993","MEAN_MOTION":"15.06390461","MEAN_ANOMALY":"310.2260","SEMIMAJOR_AXIS":"6925.378","OBJECT_TYPE":"PAYLOAD","EPHEMERIS_TYPE":"0","CENTER_NAME":"EARTH","PERIAPSIS":"545.930","PERIOD":"95.593","REF_FRAME":"TEME"},{"APOAPSIS":"532.032","OBJECT_ID":"2020-038BE","BSTAR":"0.00089792000000","RCS_SIZE":"LARGE","ELEMENT_SET_NO":"999","OBJECT_NAME":"STARLINK-1498","DECAY_DATE":null,"EPOCH":"2022-12-29T01:37:01.387488","ECCENTRICITY":"0.00010670","CLASSIFICATION_TYPE":"U","ARG_OF_PERICENTER":"33.7682","FILE":"3725790","COUNTRY_CODE":"US","TIME_SYSTEM":"UTC","REV_AT_EPOCH":"14096","GP_ID":"221736151","SITE":"AFETR","TLE_LINE2":"2 45782  53.0539  31.0918 0001067  33.7682 326.3377 15.11609047140963","LAUNCH_DATE":"2020-06-13","MEAN_MOTION_DDOT":"0.0000000000000","NORAD_CAT_ID":"45782","MEAN_MOTION_DOT":"0.00015163","INCLINATION":"53.0539","MEAN_ELEMENT_THEORY":"SGP4","RA_OF_ASC_NODE":"31.0918","TLE_LINE1":"1 45782U 20038BE  22363.06737717  .00015163  00000-0  89792-3 0  9997","MEAN_MOTION":"15.11609047","MEAN_ANOMALY":"326.3377","SEMIMAJOR_AXIS":"6909.429","OBJECT_TYPE":"PAYLOAD","EPHEMERIS_TYPE":"0","CENTER_NAME":"EARTH","PERIAPSIS":"530.557","REF_FRAME":"TEME","PERIOD":"95.263"},{"PERIOD":"95.593","REF_FRAME":"TEME","PERIAPSIS":"545.254","CENTER_NAME":"EARTH","EPHEMERIS_TYPE":"0","OBJECT_TYPE":"PAYLOAD","SEMIMAJOR_AXIS":"6925.367","MEAN_ANOMALY":"330.6439","MEAN_MOTION":"15.06393903","TLE_LINE1":"1 45783U 20038BF  22363.13004586 -.00002875  00000-0 -17416-3 0  9999","MEAN_ELEMENT_THEORY":"SGP4","RA_OF_ASC_NODE":"33.5157","INCLINATION":"53.0566","MEAN_MOTION_DOT":"-0.00002875","NORAD_CAT_ID":"45783","LAUNCH_DATE":"2020-06-13","MEAN_MOTION_DDOT":"0.0000000000000","SITE":"AFETR","TLE_LINE2":"2 45783  53.0566  33.5157 0002856  29.4711 330.6439 15.06393903141859","REV_AT_EPOCH":"14185","GP_ID":"221702433","TIME_SYSTEM":"UTC","COUNTRY_CODE":"US","FILE":"3725214","ARG_OF_PERICENTER":"29.4711","CLASSIFICATION_TYPE":"U","ECCENTRICITY":"0.00028560","EPOCH":"2022-12-29T03:07:15.962304","DECAY_DATE":null,"OBJECT_NAME":"STARLINK-1505","RCS_SIZE":"LARGE","ELEMENT_SET_NO":"999","BSTAR":"-0.00017416000000","OBJECT_ID":"2020-038BF","APOAPSIS":"549.210"}];
